start=new Date('2022-02-07T00:00:00.000Z').valueOf();
sats=[{"PERIOD":"95.593","ARG_OF_PERICENTER":"69.5517","COUNTRY_CODE":"US","TLE_LINE1":"1 48645U 21044H   22037.82884441  .00001085  00000-0  91768-4 0  9990","REV_AT_EPOCH":"3885","MEAN_MOTION_DDOT":"0.0000000000000","TLE_LINE2":"2 48645  53.0547 338.8485 0001722  69.5517 290.5657 15.06387175 38858","EPOCH":"2022-02-06T19:53:32.157024","EPHEMERIS_TYPE":"0","APOAPSIS":"548.445","OBJECT_TYPE":"PAYLOAD","SITE":"AFETR","MEAN_MOTION_DOT":"0.00001085","OBJECT_NAME":"STARLINK-2733","FILE":"3293822","RA_OF_ASC_NODE":"338.8485","RCS_SIZE":"LARGE","ECCENTRICITY":"0.00017220","PERIAPSIS":"546.060","TIME_SYSTEM":"UTC","ELEMENT_SET_NO":"999","MEAN_ANOMALY":"290.5657","CLASSIFICATION_TYPE":"U","REF_FRAME":"TEME","GP_ID":"195444117","SEMIMAJOR_AXIS":"6925.388","NORAD_CAT_ID":"48645","MEAN_MOTION":"15.06387175","LAUNCH_DATE":"2021-05-26","INCLINATION":"53.0547","BSTAR":"0.00009176800000","DECAY_DATE":null,"MEAN_ELEMENT_THEORY":"SGP4","OBJECT_ID":"2021-044H","CENTER_NAME":"EARTH"},{"MEAN_MOTION":"15.06397056","BSTAR":"-0.00009116200000","LAUNCH_DATE":"2021-05-26","INCLINATION":"53.0557","DECAY_DATE":null,"CENTER_NAME":"EARTH","MEAN_ELEMENT_THEORY":"SGP4","OBJECT_ID":"2021-044J","TIME_SYSTEM":"UTC","PERIAPSIS":"546.282","ELEMENT_SET_NO":"999","MEAN_ANOMALY":"278.1324","CLASSIFICATION_TYPE":"U","GP_ID":"195413750","REF_FRAME":"TEME","SEMIMAJOR_AXIS":"6925.358","NORAD_CAT_ID":"48646","SITE":"AFETR","OBJECT_NAME":"STARLINK-2732","MEAN_MOTION_DOT":"-0.00001639","FILE":"3293555","RA_OF_ASC_NODE":"340.0375","RCS_SIZE":"LARGE","ECCENTRICITY":"0.00013580","PERIOD":"95.592","ARG_OF_PERICENTER":"81.9819","COUNTRY_CODE":"US","TLE_LINE1":"1 48646U 21044J   22037.55976614 -.00001639  00000-0 -91162-4 0  9990","REV_AT_EPOCH":"3881","MEAN_MOTION_DDOT":"0.0000000000000","TLE_LINE2":"2 48646  53.0557 340.0375 0001358  81.9819 278.1324 15.06397056 38819","EPOCH":"2022-02-06T13:26:03.794496","EPHEMERIS_TYPE":"0","APOAPSIS":"548.163","OBJECT_TYPE":"PAYLOAD"},{"GP_ID":"195416935","REF_FRAME":"TEME","CLASSIFICATION_TYPE":"U","NORAD_CAT_ID":"48647","SEMIMAJOR_AXIS":"6925.393","ELEMENT_SET_NO":"999","MEAN_ANOMALY":"286.4771","PERIAPSIS":"546.238","TIME_SYSTEM":"UTC","OBJECT_ID":"2021-044K","MEAN_ELEMENT_THEORY":"SGP4","CENTER_NAME":"EARTH","LAUNCH_DATE":"2021-05-26","INCLINATION":"53.0560","BSTAR":"-0.00013314000000","MEAN_MOTION":"15.06385404","DECAY_DATE":null,"OBJECT_TYPE":"PAYLOAD","EPHEMERIS_TYPE":"0","EPOCH":"2022-02-06T13:20:45.136608","TLE_LINE2":"2 48647  53.0560 340.0716 0001473  73.6380 286.4771 15.06385404 39714","APOAPSIS":"548.278","COUNTRY_CODE":"US","TLE_LINE1":"1 48647U 21044K   22037.55607797 -.00002263  00000-0 -13314-3 0  9990","MEAN_MOTION_DDOT":"0.0000000000000","REV_AT_EPOCH":"3971","ARG_OF_PERICENTER":"73.6380","PERIOD":"95.593","ECCENTRICITY":"0.00014730","RA_OF_ASC_NODE":"340.0716","RCS_SIZE":"LARGE","OBJECT_NAME":"STARLINK-2691","SITE":"AFETR","MEAN_MOTION_DOT":"-0.00002263","FILE":"3293591"},{"FILE":"3293822","SITE":"AFETR","OBJECT_NAME":"STARLINK-2521","MEAN_MOTION_DOT":"-0.00003427","RCS_SIZE":"LARGE","RA_OF_ASC_NODE":"338.8806","ECCENTRICITY":"0.00015850","PERIOD":"95.594","ARG_OF_PERICENTER":"72.4793","REV_AT_EPOCH":"3885","MEAN_MOTION_DDOT":"0.0000000000000","TLE_LINE1":"1 48648U 21044L   22037.82052594 -.00003427  00000-0 -21139-3 0  9997","COUNTRY_CODE":"US","APOAPSIS":"548.377","TLE_LINE2":"2 48648  53.0566 338.8806 0001585  72.4793 287.6369 15.06378424 38859","EPOCH":"2022-02-06T19:41:33.441216","EPHEMERIS_TYPE":"0","OBJECT_TYPE":"PAYLOAD","DECAY_DATE":null,"MEAN_MOTION":"15.06378424","LAUNCH_DATE":"2021-05-26","BSTAR":"-0.00021139000000","INCLINATION":"53.0566","CENTER_NAME":"EARTH","OBJECT_ID":"2021-044L","MEAN_ELEMENT_THEORY":"SGP4","TIME_SYSTEM":"UTC","PERIAPSIS":"546.182","MEAN_ANOMALY":"287.6369","ELEMENT_SET_NO":"999","SEMIMAJOR_AXIS":"6925.415","NORAD_CAT_ID":"48648","CLASSIFICATION_TYPE":"U","REF_FRAME":"TEME","GP_ID":"195445869"},{"ELEMENT_SET_NO":"999","MEAN_ANOMALY":"305.0915","PERIAPSIS":"546.008","TIME_SYSTEM":"UTC","GP_ID":"195413498","REF_FRAME":"TEME","CLASSIFICATION_TYPE":"U","NORAD_CAT_ID":"48649","SEMIMAJOR_AXIS":"6925.371","LAUNCH_DATE":"2021-05-26","BSTAR":"0.00003643500000","INCLINATION":"53.0555","MEAN_MOTION":"15.06392610","DECAY_DATE":null,"OBJECT_ID":"2021-044M","MEAN_ELEMENT_THEORY":"SGP4","CENTER_NAME":"EARTH","COUNTRY_CODE":"US","TLE_LINE1":"1 48649U 21044M   22037.55239680  .00000261  00000-0  36435-4 0  9998","MEAN_MOTION_DDOT":"0.0000000000000","REV_AT_EPOCH":"3880","PERIOD":"95.593","ARG_OF_PERICENTER":"55.0240","OBJECT_TYPE":"PAYLOAD","EPHEMERIS_TYPE":"0","TLE_LINE2":"2 48649  53.0555 340.0759 0001773  55.0240 305.0915 15.06392610 38803","EPOCH":"2022-02-06T13:15:27.083520","APOAPSIS":"548.464","RA_OF_ASC_NODE":"340.0759","RCS_SIZE":"LARGE","SITE":"AFETR","MEAN_MOTION_DOT":"0.00000261","OBJECT_NAME":"STARLINK-2673","FILE":"3293555","ECCENTRICITY":"0.00017730"},{"NORAD_CAT_ID":"48650","SEMIMAJOR_AXIS":"6925.353","GP_ID":"195414250","REF_FRAME":"TEME","CLASSIFICATION_TYPE":"U","MEAN_ANOMALY":"278.6889","ELEMENT_SET_NO":"999","PERIAPSIS":"546.204","TIME_SYSTEM":"UTC","OBJECT_ID":"2021-044N","CENTER_NAME":"EARTH","MEAN_ELEMENT_THEORY":"SGP4","DECAY_DATE":null,"BSTAR":"-0.00017961000000","LAUNCH_DATE":"2021-05-26","INCLINATION":"53.0563","MEAN_MOTION":"15.06398583","OBJECT_TYPE":"PAYLOAD","APOAPSIS":"548.232","EPHEMERIS_TYPE":"0","EPOCH":"2022-02-06T13:10:08.632992","TLE_LINE2":"2 48650  53.0563 340.0999 0001464  81.4266 278.6889 15.06398583 38808","MEAN_MOTION_DDOT":"0.0000000000000","REV_AT_EPOCH":"3880","COUNTRY_CODE":"US","TLE_LINE1":"1 48650U 21044N   22037.54871103 -.00002956  00000-0 -17961-3 0  9998","PERIOD":"95.592","ARG_OF_PERICENTER":"81.4266","ECCENTRICITY":"0.00014640","RCS_SIZE":"LARGE","RA_OF_ASC_NODE":"340.0999","FILE":"3293555","SITE":"AFETR","OBJECT_NAME":"STARLINK-2672","MEAN_MOTION_DOT":"-0.00002956"},{"APOAPSIS":"548.290","EPHEMERIS_TYPE":"0","TLE_LINE2":"2 48651  53.0570 340.1114 0001496  63.0820 297.0322 15.06386942 38807","EPOCH":"2022-02-06T13:04:50.026944","OBJECT_TYPE":"PAYLOAD","PERIOD":"95.593","ARG_OF_PERICENTER":"63.0820","MEAN_MOTION_DDOT":"0.0000000000000","REV_AT_EPOCH":"3880","COUNTRY_CODE":"US","TLE_LINE1":"1 48651U 21044P   22037.54502346 -.00002413  00000-0 -14322-3 0  9995","ECCENTRICITY":"0.00014960","FILE":"3293555","OBJECT_NAME":"STARLINK-2731","SITE":"AFETR","MEAN_MOTION_DOT":"-0.00002413","RCS_SIZE":"LARGE","RA_OF_ASC_NODE":"340.1114","NORAD_CAT_ID":"48651","SEMIMAJOR_AXIS":"6925.389","REF_FRAME":"TEME","GP_ID":"195414001","CLASSIFICATION_TYPE":"U","PERIAPSIS":"546.218","TIME_SYSTEM":"UTC","MEAN_ANOMALY":"297.0322","ELEMENT_SET_NO":"999","OBJECT_ID":"2021-044P","CENTER_NAME":"EARTH","MEAN_ELEMENT_THEORY":"SGP4","DECAY_DATE":null,"INCLINATION":"53.0570","LAUNCH_DATE":"2021-05-26","BSTAR":"-0.00014322000000","MEAN_MOTION":"15.06386942"},{"EPOCH":"2022-02-06T20:57:14.835168","TLE_LINE2":"2 48652  53.0573 338.6414 0001640  73.7100 286.4069 15.06382067 38855","EPHEMERIS_TYPE":"0","APOAPSIS":"548.404","OBJECT_TYPE":"PAYLOAD","PERIOD":"95.593","ARG_OF_PERICENTER":"73.7100","COUNTRY_CODE":"US","TLE_LINE1":"1 48652U 21044Q   22037.87308837 -.00002777  00000-0 -16769-3 0  9991","REV_AT_EPOCH":"3885","MEAN_MOTION_DDOT":"0.0000000000000","ECCENTRICITY":"0.00016400","SITE":"AFETR","OBJECT_NAME":"STARLINK-2727","MEAN_MOTION_DOT":"-0.00002777","FILE":"3293822","RA_OF_ASC_NODE":"338.6414","RCS_SIZE":"LARGE","CLASSIFICATION_TYPE":"U","GP_ID":"195445370","REF_FRAME":"TEME","SEMIMAJOR_AXIS":"6925.404","NORAD_CAT_ID":"48652","PERIAPSIS":"546.133","TIME_SYSTEM":"UTC","ELEMENT_SET_NO":"999","MEAN_ANOMALY":"286.4069","MEAN_ELEMENT_THEORY":"SGP4","OBJECT_ID":"2021-044Q","CENTER_NAME":"EARTH","MEAN_MOTION":"15.06382067","INCLINATION":"53.0573","LAUNCH_DATE":"2021-05-26","BSTAR":"-0.00016769000000","DECAY_DATE":null},{"COUNTRY_CODE":"US","TLE_LINE1":"1 48653U 21044R   22037.53765100 -.00002042  00000-0 -11826-3 0  9999","REV_AT_EPOCH":"3964","MEAN_MOTION_DDOT":"0.0000000000000","ARG_OF_PERICENTER":"65.5187","PERIOD":"95.593","OBJECT_TYPE":"PAYLOAD","TLE_LINE2":"2 48653  53.0562 340.1453 0001594  65.5187 294.5968 15.06387815 39649","EPOCH":"2022-02-06T12:54:13.046400","EPHEMERIS_TYPE":"0","APOAPSIS":"548.355","RA_OF_ASC_NODE":"340.1453","RCS_SIZE":"LARGE","SITE":"AFETR","OBJECT_NAME":"STARLINK-2720","MEAN_MOTION_DOT":"-0.00002042","FILE":"3293543","ECCENTRICITY":"0.00015940","ELEMENT_SET_NO":"999","MEAN_ANOMALY":"294.5968","PERIAPSIS":"546.147","TIME_SYSTEM":"UTC","CLASSIFICATION_TYPE":"U","GP_ID":"195389984","REF_FRAME":"TEME","SEMIMAJOR_AXIS":"6925.386","NORAD_CAT_ID":"48653","MEAN_MOTION":"15.06387815","BSTAR":"-0.00011826000000","LAUNCH_DATE":"2021-05-26","INCLINATION":"53.0562","DECAY_DATE":null,"MEAN_ELEMENT_THEORY":"SGP4","OBJECT_ID":"2021-044R","CENTER_NAME":"EARTH"},{"OBJECT_NAME":"STARLINK-2651","SITE":"AFETR","MEAN_MOTION_DOT":"-0.00000666","FILE":"3293555","RA_OF_ASC_NODE":"340.1693","RCS_SIZE":"LARGE","ECCENTRICITY":"0.00015310","PERIOD":"95.593","ARG_OF_PERICENTER":"66.0850","COUNTRY_CODE":"US","TLE_LINE1":"1 48654U 21044S   22037.53396422 -.00000666  00000-0 -25830-4 0  9998","REV_AT_EPOCH":"3880","MEAN_MOTION_DDOT":"0.0000000000000","TLE_LINE2":"2 48654  53.0551 340.1693 0001531  66.0850 294.0299 15.06388673 38800","EPOCH":"2022-02-06T12:48:54.508608","EPHEMERIS_TYPE":"0","APOAPSIS":"548.309","OBJECT_TYPE":"PAYLOAD","MEAN_MOTION":"15.06388673","LAUNCH_DATE":"2021-05-26","BSTAR":"-0.00002583000000","INCLINATION":"53.0551","DECAY_DATE":null,"CENTER_NAME":"EARTH","OBJECT_ID":"2021-044S","MEAN_ELEMENT_THEORY":"SGP4","PERIAPSIS":"546.188","TIME_SYSTEM":"UTC","ELEMENT_SET_NO":"999","MEAN_ANOMALY":"294.0299","CLASSIFICATION_TYPE":"U","GP_ID":"195413751","REF_FRAME":"TEME","SEMIMAJOR_AXIS":"6925.383","NORAD_CAT_ID":"48654"}];
